{"type": "FeatureCollection", "features": [ {"type": "Feature", "properties": {"norad_id": 66635, "name": "STARLINK-35955", "group": "last-30-days", "lat": 31.65099450128124, "lon": -91.50513644812887, "alt_km": 442.48873201641345, "timestamp": "2025-12-27T18:38:02.202376+00:00", "meta": {"OBJECT_NAME": "STARLINK-35955", "OBJECT_ID": "2025-271U", "EPOCH": "2025-12-27T11:48:05.656032", "MEAN_MOTION": 15.39657722, "ECCENTRICITY": 0.0001033, "INCLINATION": 53.1601, "RA_OF_ASC_NODE": 117.3625, "ARG_OF_PERICENTER": 116.6157, "MEAN_ANOMALY": 243.4954, "EPHEMERIS_TYPE": 0, "CLASSIFICATION_TYPE": "U", "NORAD_CAT_ID": 66635, "ELEMENT_SET_NO": 999, "REV_AT_EPOCH": 648, "BSTAR": 0.001034, "MEAN_MOTION_DOT": 0.00041235, "MEAN_MOTION_DDOT": 0}, "tle": {"line1": "1 66635U 25271U   25361.49173213  .00041235  00000+0  10340-2 0  9994", "line2": "2 66635  53.1601 117.3625 0001033 116.6157 243.4954 15.39657722  6489"}}, "geometry": {"type": "Point", "coordinates": [-91.50513644812887, 31.65099450128124]}}, {"type": "Feature", "properties": {"norad_id": 66636, "name": "STARLINK-35968", "group": "last-30-days", "lat": 47.32582744157745, "lon": -118.33730613193411, "alt_km": 440.0149924689649, "timestamp": "2025-12-27T18:38:02.202386+00:00", "meta": {"OBJECT_NAME": "STARLINK-35968", "OBJECT_ID": "2025-271V", "EPOCH": "2025-12-27T11:54:46.768032", "MEAN_MOTION": 15.39658351, "ECCENTRICITY": 0.0001048, "INCLINATION": 53.1604, "RA_OF_ASC_NODE": 117.3908, "ARG_OF_PERICENTER": 100.1409, "MEAN_ANOMALY": 259.9714, "EPHEMERIS_TYPE": 0, "CLASSIFICATION_TYPE": "U", "NORAD_CAT_ID": 66636, "ELEMENT_SET_NO": 999, "REV_AT_EPOCH": 648, "BSTAR": 0.0010735, "MEAN_MOTION_DOT": 0.00042836, "MEAN_MOTION_DDOT": 0}, "tle": {"line1": "1 66636U 25271V   25361.49637463  .00042836  00000+0  10735-2 0  9993", "line2": "2 66636  53.1604 117.3908 0001048 100.1409 259.9714 15.39658351  6486"}}, "geometry": {"type": "Point", "coordinates": [-118.33730613193411, 47.32582744157745]}}, {"type": "Feature", "properties": {"norad_id": 66637, "name": "STARLINK-35953", "group": "last-30-days", "lat": 12.017463467668128, "lon": -73.2161967824091, "alt_km": 445.92116530711064, "timestamp": "2025-12-27T18:38:02.202396+00:00", "meta": {"OBJECT_NAME": "STARLINK-35953", "OBJECT_ID": "2025-271W", "EPOCH": "2025-12-27T00:47:04.456608", "MEAN_MOTION": 15.39644596, "ECCENTRICITY": 9.745e-05, "INCLINATION": 53.1593, "RA_OF_ASC_NODE": 119.4733, "ARG_OF_PERICENTER": 88.4175, "MEAN_ANOMALY": 271.6942, "EPHEMERIS_TYPE": 0, "CLASSIFICATION_TYPE": "U", "NORAD_CAT_ID": 66637, "ELEMENT_SET_NO": 999, "REV_AT_EPOCH": 641, "BSTAR": 0.0015008031, "MEAN_MOTION_DOT": 0.00060155, "MEAN_MOTION_DDOT": 0}, "tle": {"line1": "1 66637U 25271W   25361.03269047  .00060155  00000+0  15008-2 0  9995", "line2": "2 66637  53.1593 119.4733 0000974  88.4175 271.6942 15.39644596  6411"}}, "geometry": {"type": "Point", "coordinates": [-73.2161967824091, 12.017463467668128]}}, {"type": "Feature", "properties": {"norad_id": 66638, "name": "STARLINK-35972", "group": "last-30-days", "lat": -28.30224930555897, "lon": -40.32335261846977, "alt_km": 450.73218755424386, "timestamp": "2025-12-27T18:38:02.202406+00:00", "meta": {"OBJECT_NAME": "STARLINK-35972", "OBJECT_ID": "2025-271X", "EPOCH": "2025-12-27T11:28:02.033184", "MEAN_MOTION": 15.39685646, "ECCENTRICITY": 0.0001092, "INCLINATION": 53.1594, "RA_OF_ASC_NODE": 117.2729, "ARG_OF_PERICENTER": 117.0176, "MEAN_ANOMALY": 243.094, "EPHEMERIS_TYPE": 0, "CLASSIFICATION_TYPE": "U", "NORAD_CAT_ID": 66638, "ELEMENT_SET_NO": 999, "REV_AT_EPOCH": 648, "BSTAR": 0.0019004, "MEAN_MOTION_DOT": 0.00076547, "MEAN_MOTION_DDOT": 0}, "tle": {"line1": "1 66638U 25271X   25361.47780131  .00076547  00000+0  19004-2 0  9998", "line2": "2 66638  53.1594 117.2729 0001092 117.0176 243.0940 15.39685646  6485"}}, "geometry": {"type": "Point", "coordinates": [-40.32335261846977, -28.30224930555897]}}, {"type": "Feature", "properties": {"norad_id": 66639, "name": "STARLINK-35908", "group": "last-30-days", "lat": -45.03221320066769, "lon": -15.548884830650216, "alt_km": 452.1703729469991, "timestamp": "2025-12-27T18:38:02.202415+00:00", "meta": {"OBJECT_NAME": "STARLINK-35908", "OBJECT_ID": "2025-271Y", "EPOCH": "2025-12-26T18:13:06.311712", "MEAN_MOTION": 15.39628094, "ECCENTRICITY": 0.00010757, "INCLINATION": 53.1602, "RA_OF_ASC_NODE": 120.608, "ARG_OF_PERICENTER": 79.5752, "MEAN_ANOMALY": 280.5374, "EPHEMERIS_TYPE": 0, "CLASSIFICATION_TYPE": "U", "NORAD_CAT_ID": 66639, "ELEMENT_SET_NO": 999, "REV_AT_EPOCH": 637, "BSTAR": 0.0012582205, "MEAN_MOTION_DOT": 0.00050274, "MEAN_MOTION_DDOT": 0}, "tle": {"line1": "1 66639U 25271Y   25360.75910083  .00050274  00000+0  12582-2 0  9993", "line2": "2 66639  53.1602 120.6080 0001075  79.5752 280.5374 15.39628094  6376"}}, "geometry": {"type": "Point", "coordinates": [-15.548884830650216, -45.03221320066769]}}, {"type": "Feature", "properties": {"norad_id": 66640, "name": "STARLINK-35921", "group": "last-30-days", "lat": -8.446770047954818, "lon": -57.69171254530194, "alt_km": 449.31469298041884, "timestamp": "2025-12-27T18:38:02.202427+00:00", "meta": {"OBJECT_NAME": "STARLINK-35921", "OBJECT_ID": "2025-271Z", "EPOCH": "2025-12-27T11:34:43.418208", "MEAN_MOTION": 15.39674834, "ECCENTRICITY": 0.000136, "INCLINATION": 53.1601, "RA_OF_ASC_NODE": 117.3018, "ARG_OF_PERICENTER": 72.7633, "MEAN_ANOMALY": 287.3521, "EPHEMERIS_TYPE": 0, "CLASSIFICATION_TYPE": "U", "NORAD_CAT_ID": 66640, "ELEMENT_SET_NO": 999, "REV_AT_EPOCH": 648, "BSTAR": 0.0015174, "MEAN_MOTION_DOT": 0.00060893, "MEAN_MOTION_DDOT": 0}, "tle": {"line1": "1 66640U 25271Z   25361.48244697  .00060893  00000+0  15174-2 0  9995", "line2": "2 66640  53.1601 117.3018 0001360  72.7633 287.3521 15.39674834  6485"}}, "geometry": {"type": "Point", "coordinates": [-57.69171254530194, -8.446770047954818]}}, {"type": "Feature", "properties": {"norad_id": 66641, "name": "STARLINK-35923", "group": "last-30-days", "lat": 6.936961407247159, "lon": 120.79425499698986, "alt_km": 446.9786909554887, "timestamp": "2025-12-27T18:38:02.202437+00:00", "meta": {"OBJECT_NAME": "STARLINK-35923", "OBJECT_ID": "2025-271AA", "EPOCH": "2025-12-27T12:00:02.000160", "MEAN_MOTION": 15.39604889, "ECCENTRICITY": 0.0001177, "INCLINATION": 53.1603, "RA_OF_ASC_NODE": 116.8634, "ARG_OF_PERICENTER": 80.648, "MEAN_ANOMALY": 195.3588, "EPHEMERIS_TYPE": 0, "CLASSIFICATION_TYPE": "U", "NORAD_CAT_ID": 66641, "ELEMENT_SET_NO": 999, "REV_AT_EPOCH": 607, "BSTAR": 0.00020102, "MEAN_MOTION_DOT": 7.645e-05, "MEAN_MOTION_DDOT": 0}, "tle": {"line1": "1 66641U 25271AA  25361.50002315  .00007645  00000+0  20102-3 0  9992", "line2": "2 66641  53.1603 116.8634 0001177  80.6480 195.3588 15.39604889  6079"}}, "geometry": {"type": "Point", "coordinates": [120.79425499698986, 6.936961407247159]}}, {"type": "Feature", "properties": {"norad_id": 66642, "name": "STARLINK-35926", "group": "last-30-days", "lat": -12.133863024631752, "lon": 106.33345634099061, "alt_km": 449.7482324370021, "timestamp": "2025-12-27T18:38:02.202447+00:00", "meta": {"OBJECT_NAME": "STARLINK-35926", "OBJECT_ID": "2025-271AB", "EPOCH": "2025-12-27T12:00:02.000160", "MEAN_MOTION": 15.39604713, "ECCENTRICITY": 0.0001231, "INCLINATION": 53.1604, "RA_OF_ASC_NODE": 116.9119, "ARG_OF_PERICENTER": 84.5134, "MEAN_ANOMALY": 167.5824, "EPHEMERIS_TYPE": 0, "CLASSIFICATION_TYPE": "U", "NORAD_CAT_ID": 66642, "ELEMENT_SET_NO": 999, "REV_AT_EPOCH": 607, "BSTAR": 0.0002445, "MEAN_MOTION_DOT": 9.388e-05, "MEAN_MOTION_DDOT": 0}, "tle": {"line1": "1 66642U 25271AB  25361.50002315  .00009388  00000+0  24450-3 0  9999", "line2": "2 66642  53.1604 116.9119 0001231  84.5134 167.5824 15.39604713  6070"}}, "geometry": {"type": "Point", "coordinates": [106.33345634099061, -12.133863024631752]}}, {"type": "Feature", "properties": {"norad_id": 66643, "name": "STARLINK-35918", "group": "last-30-days", "lat": -53.08074639294551, "lon": 21.953975119383863, "alt_km": 452.893427113062, "timestamp": "2025-12-27T18:38:02.202457+00:00", "meta": {"OBJECT_NAME": "STARLINK-35918", "OBJECT_ID": "2025-271AC", "EPOCH": "2025-12-27T11:14:39.543936", "MEAN_MOTION": 15.39635581, "ECCENTRICITY": 0.0001776, "INCLINATION": 53.1611, "RA_OF_ASC_NODE": 117.2152, "ARG_OF_PERICENTER": 123.4999, "MEAN_ANOMALY": 236.6176, "EPHEMERIS_TYPE": 0, "CLASSIFICATION_TYPE": "U", "NORAD_CAT_ID": 66643, "ELEMENT_SET_NO": 999, "REV_AT_EPOCH": 648, "BSTAR": 0.0011654, "MEAN_MOTION_DOT": 0.00046525, "MEAN_MOTION_DDOT": 0}, "tle": {"line1": "1 66643U 25271AC  25361.46851324  .00046525  00000+0  11654-2 0  9992", "line2": "2 66643  53.1611 117.2152 0001776 123.4999 236.6176 15.39635581  6486"}}, "geometry": {"type": "Point", "coordinates": [21.953975119383863, -53.08074639294551]}}, {"type": "Feature", "properties": {"norad_id": 66644, "name": "STARLINK-35938", "group": "last-30-days", "lat": -13.593492272526747, "lon": 105.168695316735, "alt_km": 449.615762244528, "timestamp": "2025-12-27T18:38:02.202471+00:00", "meta": {"OBJECT_NAME": "STARLINK-35938", "OBJECT_ID": "2025-271AD", "EPOCH": "2025-12-27T12:00:02.000160", "MEAN_MOTION": 15.39606217, "ECCENTRICITY": 0.0001326, "INCLINATION": 53.1603, "RA_OF_ASC_NODE": 116.9159, "ARG_OF_PERICENTER": 64.6145, "MEAN_ANOMALY": 185.6276, "EPHEMERIS_TYPE": 0, "CLASSIFICATION_TYPE": "U", "NORAD_CAT_ID": 66644, "ELEMENT_SET_NO": 999, "REV_AT_EPOCH": 596, "BSTAR": 0.00033929, "MEAN_MOTION_DOT": 0.00013189, "MEAN_MOTION_DDOT": 0}, "tle": {"line1": "1 66644U 25271AD  25361.50002315  .00013189  00000+0  33929-3 0  9996", "line2": "2 66644  53.1603 116.9159 0001326  64.6145 185.6276 15.39606217  5961"}}, "geometry": {"type": "Point", "coordinates": [105.168695316735, -13.593492272526747]}}]}